NORAD_CAT_ID,OBJECT_NAME,OBJECT_TYPE,EPOCH,MEAN_MOTION,ECCENTRICITY,INCLINATION,RA_OF_ASC_NODE,ARG_OF_PERICENTER,MEAN_ANOMALY,BSTAR,MEAN_MOTION_DOT,MEAN_MOTION_DDOT,TLE_LINE0,TLE_LINE1,TLE_LINE2,SEMIMAJOR_AXIS,PERIOD,APOGEE,PERIGEE,DECAYED
54765.0,STARLINK-5466,PAYLOAD,2023-06-14 19:55:57,15.08833949,0.0001014,53.2172,208.2871,89.4838,270.627,3.6463e-05,2.93e-06,0.0,0 STARLINK-5466,1 54765U 22175H   23165.83052252  .00000293  00000-0  36463-4 0  9998,2 54765  53.2172 208.2871 0001014  89.4838 270.6270 15.08833949 29121,6917.899,95.438,540.465,539.062,0.0
54765.0,STARLINK-5466,PAYLOAD,2023-06-15 10:14:25,15.08837638,0.0001161,53.2166,205.6095,96.485,263.6274,5.3596e-05,5.65e-06,0.0,0 STARLINK-5466,1 54765U 22175H   23166.42668261  .00000565  00000-0  53596-4 0  9995,2 54765  53.2166 205.6095 0001161  96.4850 263.6274 15.08837638 29213,6917.888,95.438,540.556,538.949,0.0
54765.0,STARLINK-5466,PAYLOAD,2023-06-16 10:05:12,15.08843284,0.0001149,53.216,201.1483,92.0169,268.0955,0.00019611,2.835e-05,0.0,0 STARLINK-5466,1 54765U 22175H   23167.42027848  .00002835  00000-0  19611-3 0  9997,2 54765  53.2160 201.1483 0001149  92.0169 268.0955 15.08843284 29365,6917.87,95.437,540.53,538.94,0.0
54765.0,STARLINK-5466,PAYLOAD,2023-06-16 19:37:31,15.08839506,0.0001163,53.215,199.3644,89.5606,270.5519,0.00014504,2.021e-05,0.0,0 STARLINK-5466,1 54765U 22175H   23167.81772325  .00002021  00000-0  14504-3 0  9990,2 54765  53.2150 199.3644 0001163  89.5606 270.5519 15.08839506 29427,6917.882,95.438,540.551,538.942,0.0
54765.0,STARLINK-5466,PAYLOAD,2023-06-17 01:59:04,15.08835889,0.0001198,53.215,198.1755,89.1869,270.9261,6.4041e-05,7.31e-06,0.0,0 STARLINK-5466,1 54765U 22175H   23168.08268589  .00000731  00000-0  64041-4 0  9990,2 54765  53.2150 198.1755 0001198  89.1869 270.9261 15.08835889 27316,6917.893,95.438,540.587,538.929,0.0
54765.0,STARLINK-5466,PAYLOAD,2023-06-17 08:20:36,15.08834965,0.00012,53.215,196.986,89.0258,271.0872,4.5329e-05,4.34e-06,0.0,0 STARLINK-5466,1 54765U 22175H   23168.34764720  .00000434  00000-0  45329-4 0  9995,2 54765  53.2150 196.9860 0001200  89.0258 271.0872 15.08834965 29501,6917.896,95.438,540.591,538.931,0.0
54765.0,STARLINK-5466,PAYLOAD,2023-06-17 19:28:18,15.08837288,0.0001232,53.2157,194.9041,93.5555,266.5578,6.3334e-05,7.2e-06,0.0,0 STARLINK-5466,1 54765U 22175H   23168.81132732  .00000720  00000-0  63334-4 0  9993,2 54765  53.2157 194.9041 0001232  93.5555 266.5578 15.08837288 29572,6917.889,95.438,540.606,538.901,0.0
54765.0,STARLINK-5466,PAYLOAD,2023-06-18 05:00:37,15.08832219,0.0001134,53.2166,193.1197,98.1514,261.9607,0.00025406,3.757e-05,0.0,0 STARLINK-5466,1 54765U 22175H   23169.20876628  .00003757  00000-0  25406-3 0  9996,2 54765  53.2166 193.1197 0001134  98.1514 261.9607 15.08832219 29630,6917.904,95.438,540.554,538.985,0.0
54765.0,STARLINK-5466,PAYLOAD,2023-06-18 08:11:23,15.08843972,0.0001187,53.2166,192.525,96.1582,263.9546,5.9758e-05,6.63e-06,0.0,0 STARLINK-5466,1 54765U 22175H   23169.34124207  .00000663  00000-0  59758-4 0  9991,2 54765  53.2166 192.5250 0001187  96.1582 263.9546 15.08843972 27500,6917.868,95.437,540.554,538.912,0.0
54765.0,STARLINK-5466,PAYLOAD,2023-06-19 01:40:37,15.08837925,0.0001108,53.216,189.2539,95.5863,264.5255,0.00010541,1.39e-05,0.0,0 STARLINK-5466,1 54765U 22175H   23170.06988400  .00001390  00000-0  10541-3 0  9999,2 54765  53.2160 189.2539 0001108  95.5863 264.5255 15.08837925 27612,6917.887,95.438,540.518,538.985,0.0
54765.0,STARLINK-5466,PAYLOAD,2023-06-19 08:02:10,15.088404,0.00011,53.216,188.0643,95.3153,264.7965,0.00010239,1.342e-05,0.0,0 STARLINK-5466,1 54765U 22175H   23170.33484339  .00001342  00000-0  10239-3 0  9992,2 54765  53.2160 188.0643 0001100  95.3153 264.7965 15.08840400 29802,6917.879,95.438,540.505,538.983,0.0
54765.0,STARLINK-5466,PAYLOAD,2023-06-20 07:52:57,15.08841404,0.0001139,53.216,183.6043,98.323,261.7892,3.7209e-05,3.04e-06,0.0,0 STARLINK-5466,1 54765U 22175H   23171.32844438  .00000304  00000-0  37209-4 0  9996,2 54765  53.2160 183.6043 0001139  98.3230 261.7892 15.08841404 27807,6917.876,95.437,540.529,538.953,0.0
54765.0,STARLINK-5466,PAYLOAD,2023-06-21 09:19:08,15.0883818,0.0001194,53.2164,178.8474,99.1791,260.9336,3.9451e-05,3.4e-06,0.0,0 STARLINK-5466,1 54765U 22175H   23172.38828726  .00000340  00000-0  39451-4 0  9996,2 54765  53.2164 178.8474 0001194  99.1791 260.9336 15.08838180 27965,6917.886,95.438,540.577,538.925,0.0
54765.0,STARLINK-5466,PAYLOAD,2023-06-21 17:16:03,15.08837174,0.0001087,53.2162,177.3601,96.7271,263.3845,4.558e-05,4.38e-06,0.0,0 STARLINK-5466,1 54765U 22175H   23172.71948797  .00000438  00000-0  45580-4 0  9992,2 54765  53.2162 177.3601 0001087  96.7271 263.3845 15.08837174 30166,6917.889,95.438,540.506,539.002,0.0
54765.0,STARLINK-5466,PAYLOAD,2023-06-22 17:06:50,15.08838462,0.0001172,53.2163,172.8983,89.9344,270.1782,6.7144e-05,7.81e-06,0.0,0 STARLINK-5466,1 54765U 22175H   23173.71308826  .00000781  00000-0  67144-4 0  9997,2 54765  53.2163 172.8983 0001172  89.9344 270.1782 15.08838462 28164,6917.885,95.438,540.561,538.939,0.0
54765.0,STARLINK-5466,PAYLOAD,2023-06-24 05:40:42,15.08841738,0.0001151,53.2161,166.0595,90.4797,269.6327,7.3587e-05,8.84e-06,0.0,0 STARLINK-5466,1 54765U 22175H   23175.23660759  .00000884  00000-0  73587-4 0  9994,2 54765  53.2161 166.0595 0001151  90.4797 269.6327 15.08841738 28395,6917.875,95.437,540.536,538.944,0.0
54765.0,STARLINK-5466,PAYLOAD,2023-06-25 08:42:16,15.08842795,0.0001156,53.2158,161.0036,93.5141,266.5983,7.612e-05,9.24e-06,0.0,0 STARLINK-5466,1 54765U 22175H   23176.36268618  .00000924  00000-0  76120-4 0  9998,2 54765  53.2158 161.0036 0001156  93.5141 266.5983 15.08842795 28565,6917.872,95.437,540.537,538.937,0.0
54765.0,STARLINK-5466,PAYLOAD,2023-06-25 16:39:12,15.088329,0.0001358,53.216,159.5175,91.172,268.9427,-8.9906e-06,-4.31e-06,0.0,0 STARLINK-5466,1 54765U 22175H   23176.69389572 -.00000431  00000-0 -89906-5 0  9999,2 54765  53.2160 159.5175 0001358  91.1720 268.9427 15.08832900 28617,6917.902,95.438,540.707,538.828,0.0
54765.0,STARLINK-5466,PAYLOAD,2023-06-27 05:13:04,15.08841288,0.0001063,53.2166,152.6789,85.1243,274.9871,0.00010691,1.414e-05,0.0,0 STARLINK-5466,1 54765U 22175H   23178.21740924  .00001414  00000-0  10691-3 0  9994,2 54765  53.2166 152.6789 0001063  85.1243 274.9871 15.08841288 28848,6917.876,95.437,540.477,539.006,0.0
54765.0,STARLINK-5466,PAYLOAD,2023-06-28 05:03:51,15.08837087,0.0001247,53.2172,148.2187,87.3682,272.7452,9.259e-05,1.186e-05,0.0,0 STARLINK-5466,1 54765U 22175H   23179.21101444  .00001186  00000-0  92590-4 0  9998,2 54765  53.2172 148.2187 0001247  87.3682 272.7452 15.08837087 28992,6917.889,95.438,540.617,538.892,0.0
54765.0,STARLINK-5466,PAYLOAD,2023-06-29 03:19:13,15.08858539,0.0001233,53.2174,144.0552,85.7348,274.3785,0.00016039,2.267e-05,0.0,0 STARLINK-5466,1 54765U 22175H   23180.13835483  .00002267  00000-0  16039-3 0  9992,2 54765  53.2174 144.0552 0001233  85.7348 274.3785 15.08858539 29139,6917.824,95.436,540.542,538.836,0.0
54765.0,STARLINK-5466,PAYLOAD,2023-07-01 03:00:49,15.08837293,0.0001053,53.2163,135.1334,86.3289,273.7824,-0.00010554,-1.967e-05,0.0,0 STARLINK-5466,1 54765U 22175H   23182.12557499 -.00001967  00000-0 -10554-3 0  9995,2 54765  53.2163 135.1334 0001053  86.3289 273.7824 15.08837293 29431,6917.889,95.438,540.482,539.025,0.0
54765.0,STARLINK-5466,PAYLOAD,2023-07-02 06:02:23,15.08837581,0.0001201,53.2167,130.0799,86.0191,274.0938,0.00019242,2.776e-05,0.0,0 STARLINK-5466,1 54765U 22175H   23183.25165521  .00002776  00000-0  19242-3 0  9991,2 54765  53.2167 130.0799 0001201  86.0191 274.0938 15.08837581 29607,6917.888,95.438,540.584,538.922,0.0
54765.0,STARLINK-5466,PAYLOAD,2023-07-04 02:33:11,15.08838289,0.0001301,53.2167,121.7506,105.9159,254.1977,1.826e-05,3e-08,0.0,0 STARLINK-5466,1 54765U 22175H   23185.10638126  .00000003  00000-0  18260-4 0  9994,2 54765  53.2167 121.7506 0001301 105.9159 254.1977 15.08838289 29884,6917.886,95.438,540.651,538.851,0.0
54765.0,STARLINK-5466,PAYLOAD,2023-07-05 02:23:57,15.08848378,0.0001167,53.2169,117.2922,91.8875,268.225,7.1129e-05,8.45e-06,0.0,0 STARLINK-5466,1 54765U 22175H   23186.09997614  .00000845  00000-0  71129-4 0  9990,2 54765  53.2169 117.2922 0001167  91.8875 268.2250 15.08848378 30035,6917.855,95.437,540.527,538.912,0.0
54765.0,STARLINK-5466,PAYLOAD,2023-07-06 02:14:45,15.08834823,0.0001344,53.2177,112.8365,116.8637,243.2493,3.7644e-05,3.11e-06,0.0,0 STARLINK-5466,1 54765U 22175H   23187.09358745  .00000311  00000-0  37644-4 0  9999,2 54765  53.2177 112.8365 0001344 116.8637 243.2493 15.08834823 30185,6917.896,95.438,540.691,538.831,0.0
54765.0,STARLINK-5466,PAYLOAD,2023-07-07 03:40:55,15.08848661,0.0001022,53.2173,108.0754,94.5176,265.5933,6.9944e-05,8.26e-06,0.0,0 STARLINK-5466,1 54765U 22175H   23188.15341975  .00000826  00000-0  69944-4 0  9993,2 54765  53.2173 108.0754 0001022  94.5176 265.5933 15.08848661 30342,6917.854,95.437,540.426,539.012,0.0
54765.0,STARLINK-5466,PAYLOAD,2023-07-07 17:59:23,15.0891633,5.43e-05,53.2164,105.398,121.9249,238.1796,-0.0010787,-0.00017449,0.0,0 STARLINK-5466,1 54765U 22175H   23188.74957624 -.00017449  00000-0 -10787-2 0  9992,2 54765  53.2164 105.3980 0000543 121.9249 238.1796 15.08916330 30438,6917.647,95.433,539.888,539.136,0.0
54765.0,STARLINK-5466,PAYLOAD,2023-07-07 22:45:33,15.0884762,8.42e-05,53.2173,104.5073,96.8993,263.2095,-5.7693e-05,-1.206e-05,0.0,0 STARLINK-5466,1 54765U 22175H   23188.94830456 -.00001206  00000-0 -57693-4 0  9990,2 54765  53.2173 104.5073 0000842  96.8993 263.2095 15.08847620 30469,6917.857,95.437,540.305,539.14,0.0
54765.0,STARLINK-5466,PAYLOAD,2023-07-08 17:50:11,15.08838764,0.0001483,53.2157,100.9382,86.3246,273.7915,4.2197e-06,-2.21e-06,0.0,0 STARLINK-5466,1 54765U 22175H   23189.74319135 -.00000221  00000-0  42197-5 0  9994,2 54765  53.2157 100.9382 0001483  86.3246 273.7915 15.08838764 30580,6917.884,95.438,540.775,538.723,0.0
